{
"type": "FeatureCollection",
"features": [
{
"type":"Feature",
"geometry": {
"type":"Point",
"coordinates":[-71.2005,46.8175]
},
"properties":{
"id":"37",
"nom":"Agora du Port de Québec", 
"url":"https://agora.portquebec.ca/",
"info":"Place de spectacle en plein air. "
}
},
{
"type":"Feature",
"geometry": {
"type":"Point",
"coordinates":[-71.2892,46.7522]
},
"properties":{
"id":"66",
"nom":"Aquarium du Québec", 
"url":"https://www.sepaq.com/ct/paq/",
"info":"Aquarium"
}
},
{
"type":"Feature",
"geometry": {
"type":"Point",
"coordinates":[-71.1962,46.8378]
},
"properties":{
"id":"56",
"nom":"Baie de Beauport", 
"url":"https://baiedebeauport.portquebec.ca/",
"info":"Plage et activités nautiques. "
}
},
{
"type":"Feature",
"geometry": {
"type":"Point",
"coordinates":[-71.2105,46.8129]
},
"properties":{
"id":"53",
"nom":"Centre culturel Morrin", 
"url":"https://www.morrin.org/",
"info":"Le Morrin Centre est un site patrimonial reconnu à l?échelle nationale, un musée et un centre culturel de langue anglaise."
}
},
{
"type":"Feature",
"geometry": {
"type":"Point",
"coordinates":[-71.3556,46.8557]
},
"properties":{
"id":"60",
"nom":"Chute Kabir-Kouba", 
"url":"Aucun",
"info":"Chute et parc."
}
},
{
"type":"Feature",
"geometry": {
"type":"Point",
"coordinates":[-71.2094,46.8397]
},
"properties":{
"id":"63",
"nom":"Domaine Maizerets", 
"url":"https://www.domainemaizerets.com/",
"info":"Surprenante oasis de verdure de 27 hectares."
}
},
{
"type":"Feature",
"geometry": {
"type":"Point",
"coordinates":[-71.2035,46.8128]
},
"properties":{
"id":"41",
"nom":"Escalier Casse-Cou", 
"url":"Aucun",
"info":"Escalier très pentu construit en 1635 et offrant une vue pittoresque dans un cadre historique."
}
},
{
"type":"Feature",
"geometry": {
"type":"Point",
"coordinates":[-71.2037,46.8126]
},
"properties":{
"id":"38",
"nom":"Funiculaire du Vieux-Québec", 
"url":"https://www.funiculaire.ca/",
"info":"Moyen de transport qui permet de passer de la terrasse Dufferin au petit Champlain. "
}
},
{
"type":"Feature",
"geometry": {
"type":"Point",
"coordinates":[-71.2141,46.8161]
},
"properties":{
"id":"64",
"nom":"L'Îlot des Palais", 
"url":"https://ilotdespalais.ca/",
"info":"Diverses expositions sur l'histoire."
}
},
{
"type":"Feature",
"geometry": {
"type":"Point",
"coordinates":[-71.2069,46.8079]
},
"properties":{
"id":"43",
"nom":"La Citadelle de Québec", 
"url":"https://www.lacitadelle.qc.ca/",
"info":"Forteresse avec citadelle historique, garnison active, musée et cérémonies de relève de la garde."
}
},
{
"type":"Feature",
"geometry": {
"type":"Point",
"coordinates":[-71.2396,46.8257]
},
"properties":{
"id":"55",
"nom":"Lieu Cartier-Bréboeuf", 
"url":"https://parcs.canada.ca/lhn-nhs/qc/cartierbrebeuf",
"info":"Parc en hommage à Jacques Cartier."
}
},
{
"type":"Feature",
"geometry": {
"type":"Point",
"coordinates":[-71.3073,46.8072]
},
"properties":{
"id":"58",
"nom":"Maison O'Neill", 
"url":"https://lamaisononeill.org/",
"info":"Exposition sur la maison et ses 3 siècles d'histoire."
}
},
{
"type":"Feature",
"geometry": {
"type":"Point",
"coordinates":[-71.267,46.8626]
},
"properties":{
"id":"62",
"nom":"Moulin des Jésuites", 
"url":"https://www.moulindesjesuites.org/",
"info":"Le Moulin des Jésuites de Charlesbourg est un lieu qui raconte l'histoire de l'ancien Moulin à farine et du Trait-Carré de Charlesbourg."
}
},
{
"type":"Feature",
"geometry": {
"type":"Point",
"coordinates":[-71.3581,46.8572]
},
"properties":{
"id":"59",
"nom":"Musée Huron-Wendat", 
"url":"https://museehuronwendat.ca/",
"info":"Musée de la nation Huronne."
}
},
{
"type":"Feature",
"geometry": {
"type":"Point",
"coordinates":[-71.2023,46.8154]
},
"properties":{
"id":"54",
"nom":"Musée de la civilisation", 
"url":"https://mcq.org/",
"info":"Expositions sur les civilisations anciennes et nouvelles du Québec. "
}
},
{
"type":"Feature",
"geometry": {
"type":"Point",
"coordinates":[-71.2128,46.8069]
},
"properties":{
"id":"46",
"nom":"Musée des plaines d'Abraham", 
"url":"https://www.plainesdabraham.ca/",
"info":"Musée d'histoire des plaines."
}
},
{
"type":"Feature",
"geometry": {
"type":"Point",
"coordinates":[-71.2251,46.8011]
},
"properties":{
"id":"52",
"nom":"Musée national des beaux-arts", 
"url":"https://www.mnbaq.org/",
"info":"Oeuvres d'artistes québécois"
}
},
{
"type":"Feature",
"geometry": {
"type":"Point",
"coordinates":[-71.2001,46.8185]
},
"properties":{
"id":"49",
"nom":"Musée naval de Québec", 
"url":"https://museenavaldequebec.ca/",
"info":"Musée gratuit sur l'histoire navale."
}
},
{
"type":"Feature",
"geometry": {
"type":"Point",
"coordinates":[-71.2992,46.83]
},
"properties":{
"id":"57",
"nom":"Méga Parc", 
"url":"https://www.mega-parc.com/",
"info":"Centre commercial avec attractions et manèges."
}
},
{
"type":"Feature",
"geometry": {
"type":"Point",
"coordinates":[-71.2179,46.808]
},
"properties":{
"id":"47",
"nom":"Observatoire de la Capitale", 
"url":"https://observatoire-capitale.com/",
"info":"Venez admirer Québec de son plus haut sommet."
}
},
{
"type":"Feature",
"geometry": {
"type":"Point",
"coordinates":[-71.3519,46.8739]
},
"properties":{
"id":"61",
"nom":"Onhwa' Lumina", 
"url":"https://onhwalumina.ca/",
"info":"Un parcours nocturne et enchanté."
}
},
{
"type":"Feature",
"geometry": {
"type":"Point",
"coordinates":[-71.2131,46.8137]
},
"properties":{
"id":"48",
"nom":"Parc-de-l'Artillerie", 
"url":"https://parcs.canada.ca/lhn-nhs/qc/fortifications/culture/histoire-history/artillerie-artillery",
"info":"Lieu historique où vous pouvez admirer la redoute Dauphine. "
}
},
{
"type":"Feature",
"geometry": {
"type":"Point",
"coordinates":[-71.2467,46.8284]
},
"properties":{
"id":"65",
"nom":"Place Jean-Béliveau", 
"url":"https://www.expocite.com/fr/installations-et-salles/place-jean-beliveau/",
"info":"Espace extérieur polyvalent et transformable pour créer des événements spectaculaires."
}
},
{
"type":"Feature",
"geometry": {
"type":"Point",
"coordinates":[-71.2028,46.8131]
},
"properties":{
"id":"40",
"nom":"Place Royale", 
"url":"https://www.placeroyale.ca/fr/",
"info":"Pendant le Régime français, la place Royale était nommée place du marché jusqu?en 1686 et servait principalement au commerce."
}
},
{
"type":"Feature",
"geometry": {
"type":"Point",
"coordinates":[-71.2883,46.7463]
},
"properties":{
"id":"67",
"nom":"Pont de Québec", 
"url":"https://fr.wikipedia.org/wiki/Pont_de_Qu%C3%A9bec",
"info":"Le pont de Québec est un pont mixte ferroviaire et routier qui traverse le fleuve Saint-Laurent entre les villes de Québec (rive nord) et de Lévis (rive sud)."
}
},
{
"type":"Feature",
"geometry": {
"type":"Point",
"coordinates":[-71.2126,46.8119]
},
"properties":{
"id":"45",
"nom":"Porte Kent", 
"url":"https://parks.canada.ca/lhn-nhs/qc/fortifications/index",
"info":"Une des portes des fortifications de Québec. "
}
},
{
"type":"Feature",
"geometry": {
"type":"Point",
"coordinates":[-71.2131,46.8129]
},
"properties":{
"id":"44",
"nom":"Porte Saint-Jean", 
"url":"https://parks.canada.ca/lhn-nhs/qc/fortifications/index",
"info":"Une des portes des fortifications de Québec. "
}
},
{
"type":"Feature",
"geometry": {
"type":"Point",
"coordinates":[-71.2035,46.8118]
},
"properties":{
"id":"39",
"nom":"Quartier Petit Champlain", 
"url":"https://www.quartierpetitchamplain.com/",
"info":"Le Quartier Petit Champlain est un lieu reconnu pour sa beauté architecturale et son offre commerciale façonnée par l'originalité. "
}
},
{
"type":"Feature",
"geometry": {
"type":"Point",
"coordinates":[-71.2186,46.8029]
},
"properties":{
"id":"50",
"nom":"Stèle Montcalm 1759", 
"url":"Aucun",
"info":"Ici fut blessé mortellement dans la matinée du 13 septembre 1759, lors de la bataille des Plaines d'Abraham, Louis-Joseph marquis de Montcalm."
}
},
{
"type":"Feature",
"geometry": {
"type":"Point",
"coordinates":[-71.2043,46.8115]
},
"properties":{
"id":"42",
"nom":"Terrasse Dufferin", 
"url":"https://parks.canada.ca/lhn-nhs/qc/saintlouisforts/index",
"info":"Construite en 1859, cette longue terrasse populaire surplombe le fleuve et offre une vue panoramique sur la ville.  "
}
},
{
"type":"Feature",
"geometry": {
"type":"Point",
"coordinates":[-71.217,46.8018]
},
"properties":{
"id":"51",
"nom":"Tour Martello no 1", 
"url":"https://www.plainesdabraham.ca/lieux-monuments-historiques/tour-martello-1",
"info":"Ancienne tour militaire. "
}
}]}